INTELSAT 9 (IS-9)       
1 26451U 00043A   25096.47885221 -.00000024  00000+0  00000+0 0  9999
2 26451   9.4287  53.1318 0003564 336.9726  43.5221  1.00272212 90479
INTELSAT 10 (IS-10)     
1 26766U 01019A   25096.45183543 -.00000019  00000+0  00000+0 0  9992
2 26766   8.0306  63.6976 0003951 309.5818  50.4458  1.00271553 87550
INTELSAT 901 (IS-901)   
1 26824U 01024A   25095.53239138 -.00000194  00000+0  00000+0 0  9997
2 26824   0.1091  96.6627 0002884 288.7616 309.7722  0.98815281 18596
INTELSAT 902 (IS-902)   
1 26900U 01039A   25095.88460436 -.00000296  00000+0  00000+0 0  9996
2 26900   5.0094  77.1057 0004503 298.8906  86.7960  1.00270585 86310
INTELSAT 904 (IS-904)   
1 27380U 02007A   25096.24572197 -.00000228  00000+0  00000+0 0  9999
2 27380   5.8247  74.3929 0003167 302.3450 236.9852  1.00271643 84704
DIRECTV 5 (TEMPO 1)     
1 27426U 02023A   25096.15832034 -.00000071  00000+0  00000+0 0  9993
2 27426   3.7587  80.7634 0003430 299.5611 121.2374  1.00272270 83927
INTELSAT 905 (IS-905)   
1 27438U 02027A   25095.87470000 -.00000059  00000+0  00000+0 0  9995
2 27438   5.6516  75.0341 0005808 292.1775  42.1774  0.99737034 46976
GALAXY 3C (G-3C)        
1 27445U 02030A   25096.15653306 -.00000167  00000+0  00000+0 0  9991
2 27445   2.6030  83.5618 0002555  54.0676  18.5536  1.00271687 83563
INTELSAT 906 (IS-906)   
1 27513U 02041A   25095.93563832 -.00000001  00000+0  00000+0 0  9995
2 27513   4.6885  78.2990 0002586 303.0084 214.1454  1.00273452 82640
GALAXY 23 (G-23)        
1 27854U 03034A   25096.15614832 -.00000003  00000+0  00000+0 0  9990
2 27854   2.0658  85.1254 0002740 295.9269 108.9619  1.00271394 84169
GALAXY 13 (HORIZONS-1)  
1 27954U 03044A   25096.50742612  .00000116  00000+0  00000+0 0  9993
2 27954   0.2874  91.0696 0002378 289.2187 207.4251  1.00273837 78779
INTELSAT 10-02          
1 28358U 04022A   25095.89489351 -.00000027  00000+0  00000+0 0  9990
2 28358   0.0146 153.1907 0000928 194.9999 167.4193  1.00271754 76173
XM-3 (RHYTHM)           
1 28626U 05008A   25095.87739330 -.00000215  00000+0  00000+0 0  9995
2 28626   0.0382 268.4802 0001254 147.9115   7.5487  1.00269084 38236
DIRECTV 8               
1 28659U 05019A   25096.51359463 -.00000015  00000+0  00000+0 0  9998
2 28659   0.0299  92.4898 0002909 279.8602 248.5277  1.00271326 72800
GALAXY 28 (G-28)        
1 28702U 05022A   25095.87695889 -.00000202  00000+0  00000+0 0  9992
2 28702   2.1697  84.3691 0003044 243.9807  93.0646  1.00270806 47598
GALAXY 16 (G-16)        
1 29236U 06023A   25095.87487376 -.00000143  00000+0  00000+0 0  9991
2 29236   0.0149 193.5364 0002637 175.4663  41.3418  1.00271954 68586
DIRECTV 9S              
1 29494U 06043A   25095.87443936 -.00000129  00000+0  00000+0 0  9997
2 29494   1.2906  86.2052 0003021 289.5469  32.2482  1.00271495 46998
GALAXY 17 (G-17)        
1 31307U 07016B   25096.52028442 -.00000221  00000+0  00000+0 0  9991
2 31307   1.8655  85.4644 0002916 218.5473 353.3326  1.00272019 65693
DIRECTV 10              
1 31862U 07032A   25096.01696602 -.00000120  00000+0  00000+0 0  9996
2 31862   0.0346 359.7564 0000459 305.5914 152.5055  1.00271223 65023
INTELSAT 11 (IS-11)     
1 32253U 07044B   25095.65845002  .00000036  00000+0  00000+0 0  9998
2 32253   2.4243  84.0602 0001700 219.5377  18.3640  0.99044306 64113
HORIZONS-2              
1 32388U 07063B   25095.87991282 -.00000269  00000+0  00000+0 0  9993
2 32388   1.4721  86.0436 0002161 299.4151  51.9097  1.00274075 63421
DIRECTV 11              
1 32729U 08013A   25096.44609831 -.00000142  00000+0  00000+0 0  9998
2 32729   0.0142  86.2554 0000176 158.7034  11.4244  1.00270516 62550
GALAXY 18 (G-18)        
1 32951U 08024A   25095.72725927  .00000009  00000+0  00000+0 0  9993
2 32951   0.0189 189.0856 0002993 193.2980 310.6831  1.00271330 41466
INTELSAT 25 (IS-25)     
1 33153U 08034A   25095.88825333 -.00000239  00000+0  00000+0 0  9994
2 33153   1.5788  85.7122 0002989 286.9194 110.0612  1.00271682 61317
GALAXY 19 (G-19)        
1 33376U 08045A   25096.51793865 -.00000156  00000+0  00000+0 0  9996
2 33376   0.0136 247.8422 0002765 123.2452 273.4081  1.00271461 60454
FM-5                    
1 35493U 09034A   25095.52039774 -.00000216  00000+0  00000+0 0  9996
2 35493   0.0271 264.3530 0002779 296.2983  94.5969  1.00272771 42255
INTELSAT 14 (IS-14)     
1 36097U 09064A   25096.17117862 -.00000290  00000+0  00000+0 0  9999
2 36097   0.0375  44.6611 0002397 327.4580 199.2107  1.00271828 56317
INTELSAT 15 (IS-15)     
1 36106U 09067A   25095.91136351 -.00000202  00000+0  00000+0 0  9991
2 36106   0.0186 198.7493 0002303 181.1860 227.7600  1.00269460 56213
DIRECTV 12              
1 36131U 09075A   25096.51680920 -.00000120  00000+0  00000+0 0  9990
2 36131   0.0327  50.7124 0000560 345.1770 242.4795  1.00270448 56005
INTELSAT 16 (IS-16)     
1 36397U 10006A   25096.52202203 -.00000261  00000+0  00000+0 0  9991
2 36397   0.0139 171.9161 0001915 215.9785 278.8883  1.00268692 55347
XM-5                    
1 37185U 10053A   25095.65740747 -.00000039  00000+0  00000+0 0  9995
2 37185   0.0291 267.1526 0001924 294.9965 113.5145  1.00271661 53098
INTELSAT 17 (IS-17)     
1 37238U 10065B   25095.93783326 -.00000018  00000+0  00000+0 0  9995
2 37238   0.0141 205.0279 0002818 188.5558 204.5022  1.00270868 48868
INTELSAT 28 (IS-28)     
1 37392U 11016A   25095.88946965 -.00000223  00000+0  00000+0 0  9995
2 37392   0.6746  88.3121 0003993 283.9458 116.8117  1.00143642 48902
INTELSAT 18 (IS-18)     
1 37834U 11056A   25096.59396638  .00000035  00000+0  00000+0 0  9995
2 37834   0.0206 223.4337 0001666 150.4538 215.0432  1.00266864 49467
INTELSAT 22 (IS-22)     
1 38098U 12011A   25095.88030712 -.00000075  00000+0  00000+0 0  9994
2 38098   0.0112 217.7972 0001790 171.9822 193.6468  1.00270625  2806
INTELSAT 19 (IS-19)     
1 38356U 12030A   25096.49874780 -.00000074  00000+0  00000+0 0  9990
2 38356   0.0136 141.7088 0002941 232.9282 165.9185  1.00270402 47136
INTELSAT 20 (IS-20)     
1 38740U 12043A   25095.90806205 -.00000041  00000+0  00000+0 0  9997
2 38740   0.0194 124.4563 0002812  60.0950  45.2890  1.00271445 46367
INTELSAT 21 (IS-21)     
1 38749U 12045A   25095.88304052 -.00000301  00000+0  00000+0 0  9997
2 38749   0.0437  82.7533 0001900 298.4490  73.0999  1.00270881 46139
INTELSAT 23 (IS-23)     
1 38867U 12057A   25096.45522075 -.00000301  00000+0  00000+0 0  9992
2 38867   0.0229 155.6819 0001282 119.2439  30.9162  1.00284252 45727
FM-6                    
1 39360U 13058A   25096.51411591 -.00000034  00000+0  00000+0 0  9993
2 39360   0.0187 254.1565 0000820 244.8988 124.9271  1.00270097 41962
INTELSAT 30 (IS-30)     
1 40271U 14062A   25093.16217558 -.00000161  00000+0  00000+0 0  9998
2 40271   0.0077 139.2391 0000649 272.8718 102.9474  1.00270701  2379
DIRECTV 14              
1 40333U 14078B   25096.16683806 -.00000142  00000+0  00000+0 0  9999
2 40333   0.0240 298.8116 0000273 289.0661 287.6330  1.00270541 37863
DIRECTV 15              
1 40663U 15026A   25096.51680920 -.00000119  00000+0  00000+0 0  9996
2 40663   0.0394  83.1029 0000546 156.6748  38.4454  1.00271307 36156
SKY MEXICO-1            
1 40664U 15026B   25096.17345610 -.00000251  00000+0  00000+0 0  9990
2 40664   0.0421  12.7382 0002379  20.5918 145.0456  1.00271123 36155
INTELSAT 34 (IS-34)     
1 40874U 15039A   25095.53239138 -.00000301  00000+0  00000+0 0  9999
2 40874   0.0185 229.6377 0000809  29.5354  71.0590  1.00272211 35231
INTELSAT 31 (IS-31)     
1 41581U 16035A   25095.51866014 -.00000167  00000+0  00000+0 0  9999
2 41581   0.0096 212.6071 0002314  15.9639  57.1346  1.00271872 32298
INTELSAT 36 (IS-36)     
1 41747U 16053A   25096.55077942 -.00000041  00000+0  00000+0 0  9993
2 41747   0.0097 201.5063 0001136 104.0085 156.3540  1.00270598 31568
INTELSAT 32E (IS-32E)   
1 41945U 17007B   25095.52683899 -.00000285  00000+0  00000+0 0  9993
2 41945   0.0206 112.6712 0000795 232.0044 355.8617  1.00271013 29831
INTELSAT 35E (IS-35E)   
1 42818U 17041A   25095.88764517 -.00000254  00000+0  00000+0 0  9993
2 42818   0.0160 127.8553 0001991 238.1355 113.4921  1.00270746 28435
INTELSAT 37E (IS-37E)   
1 42950U 17059A   25095.89094662 -.00000157  00000+0  00000+0 0  9999
2 42950   0.0192 183.8852 0002040 200.3777 112.9099  1.00270037 27685
AZERSPACE 2 (IS-38)     
1 43632U 18074A   25096.16989044  .00000120  00000+0  00000+0 0  9992
2 43632   0.0188 227.7891 0001488 133.7883 299.3919  1.00269653 24052
HORIZONS-3E             
1 43633U 18074B   25095.85662889 -.00000047  00000+0  00000+0 0  9992
2 43633   0.0128 197.7433 0001117 101.5387  12.4825  1.00270537 23935
AT&T T-16               
1 44333U 19034A   25096.08872918 -.00000132  00000+0  00000+0 0  9994
2 44333   0.0293  94.1489 0001031  93.4149 298.1369  1.00271340 21248
INTELSAT 39 (IS-39)     
1 44476U 19049B   25096.58332687  .00000017  00000+0  00000+0 0  9998
2 44476   0.0203 196.4277 0000482 334.1725 296.4564  1.00268972 20741
GALAXY 30 (G-30)        
1 46114U 20056C   25096.51237830  .00000020  00000+0  00000+0 0  9990
2 46114   0.0189 179.4218 0002031 200.2059 234.8657  1.00270473 17021
GALAXY 33 (G-33)        
1 54026U 22128A   25095.72517414  .00000063  00000+0  00000+0 0  9991
2 54026   0.0159 192.4126 0001856 177.2542 312.6634  1.00270508  9352
GALAXY 34 (G-34)        
1 54027U 22128B   25095.65471417  .00000043  00000+0  00000+0 0  9994
2 54027   0.0173 184.2610 0001424 191.0734 285.6312  1.00269106  9527
GALAXY 31 (G-31)        
1 54243U 22153A   25095.65627802 -.00000003  00000+0  00000+0 0  9990
2 54243   0.0090 218.1226 0001338 140.0898 311.2332  1.00271105  2741
GALAXY 32 (G-32)        
1 54244U 22153B   25096.01931178 -.00000191  00000+0  00000+0 0  9994
2 54244   0.0154 105.0557 0002931 257.2722 108.1607  1.00271030  8786
GALAXY 35 (G-35)        
1 54741U 22170A   25095.59042271 -.00000178  00000+0  00000+0 0  9999
2 54741   0.0098 210.9293 0001887 156.5386 306.1071  1.00271692  8503
GALAXY 36 (G-36)        
1 54742U 22170B   25095.59120463 -.00000201  00000+0  00000+0 0  9997
2 54742   0.0222 126.4716 0002096 283.7124 267.7642  1.00271381  8387
GALAXY 37 (G-37)        
1 57493U 23112A   25096.51194390  .00000031  00000+0  00000+0 0  9993
2 57493   0.0412  42.4210 0001967 323.9701 245.9292  1.00271501  6149
